[{"OBJECT_NAME":"STARLINK-6273","OBJECT_ID":"2023-061X","EPOCH":"2025-11-16T16:55:10.151040","MEAN_MOTION":15.02547123,"ECCENTRICITY":0.0001509,"INCLINATION":43.005,"RA_OF_ASC_NODE":78.8373,"ARG_OF_PERICENTER":268.2484,"MEAN_ANOMALY":91.8185,"EPHEMERIS_TYPE":0,"CLASSIFICATION_TYPE":"U","NORAD_CAT_ID":56395,"ELEMENT_SET_NO":999,"REV_AT_EPOCH":14061,"BSTAR":0.00011533,"MEAN_MOTION_DOT":1.355e-5,"MEAN_MOTION_DDOT":0},{"OBJECT_NAME":"STARLINK-6302","OBJECT_ID":"2023-061Y","EPOCH":"2025-11-16T16:42:23.253408","MEAN_MOTION":15.02540722,"ECCENTRICITY":0.0001185,"INCLINATION":43.0048,"RA_OF_ASC_NODE":78.775,"ARG_OF_PERICENTER":280.0539,"MEAN_ANOMALY":80.0169,"EPHEMERIS_TYPE":0,"CLASSIFICATION_TYPE":"U","NORAD_CAT_ID":56396,"ELEMENT_SET_NO":999,"REV_AT_EPOCH":13503,"BSTAR":0.00011459,"MEAN_MOTION_DOT":1.345e-5,"MEAN_MOTION_DDOT":0},{"OBJECT_NAME":"STARLINK-6271","OBJECT_ID":"2023-061Z","EPOCH":"2025-11-16T16:58:22.228608","MEAN_MOTION":15.02544659,"ECCENTRICITY":0.0001454,"INCLINATION":43.0029,"RA_OF_ASC_NODE":78.8574,"ARG_OF_PERICENTER":283.8218,"MEAN_ANOMALY":76.2463,"EPHEMERIS_TYPE":0,"CLASSIFICATION_TYPE":"U","NORAD_CAT_ID":56397,"ELEMENT_SET_NO":999,"REV_AT_EPOCH":13990,"BSTAR":0.00017759,"MEAN_MOTION_DOT":2.197e-5,"MEAN_MOTION_DDOT":0},{"OBJECT_NAME":"STARLINK-6288","OBJECT_ID":"2023-061AA","EPOCH":"2025-11-16T16:37:35.184576","MEAN_MOTION":15.02532154,"ECCENTRICITY":0.0001126,"INCLINATION":43.0019,"RA_OF_ASC_NODE":78.7497,"ARG_OF_PERICENTER":285.6794,"MEAN_ANOMALY":74.3924,"EPHEMERIS_TYPE":0,"CLASSIFICATION_TYPE":"U","NORAD_CAT_ID":56398,"ELEMENT_SET_NO":999,"REV_AT_EPOCH":13990,"BSTAR":1.8286e-5,"MEAN_MOTION_DOT":4.3e-7,"MEAN_MOTION_DDOT":0},{"OBJECT_NAME":"STARLINK-6277","OBJECT_ID":"2023-061AB","EPOCH":"2025-11-16T16:45:34.543008","MEAN_MOTION":15.02693411,"ECCENTRICITY":0.0001611,"INCLINATION":43.0034,"RA_OF_ASC_NODE":78.7922,"ARG_OF_PERICENTER":299.3248,"MEAN_ANOMALY":60.7433,"EPHEMERIS_TYPE":0,"CLASSIFICATION_TYPE":"U","NORAD_CAT_ID":56399,"ELEMENT_SET_NO":999,"REV_AT_EPOCH":13990,"BSTAR":-0.00243,"MEAN_MOTION_DOT":-0.00033013,"MEAN_MOTION_DDOT":0},{"OBJECT_NAME":"STARLINK-6267","OBJECT_ID":"2023-061AC","EPOCH":"2025-11-16T16:29:36.260736","MEAN_MOTION":15.02547886,"ECCENTRICITY":0.0001506,"INCLINATION":43.0026,"RA_OF_ASC_NODE":78.7049,"ARG_OF_PERICENTER":263.5162,"MEAN_ANOMALY":96.5509,"EPHEMERIS_TYPE":0,"CLASSIFICATION_TYPE":"U","NORAD_CAT_ID":56400,"ELEMENT_SET_NO":999,"REV_AT_EPOCH":13990,"BSTAR":0.00034789,"MEAN_MOTION_DOT":4.5e-5,"MEAN_MOTION_DDOT":0},{"OBJECT_NAME":"STARLINK-6256","OBJECT_ID":"2023-061AD","EPOCH":"2025-11-16T20:00:01.999008","MEAN_MOTION":15.30605952,"ECCENTRICITY":0.0002669,"INCLINATION":43.0003,"RA_OF_ASC_NODE":62.7969,"ARG_OF_PERICENTER":300.1648,"MEAN_ANOMALY":302.9345,"EPHEMERIS_TYPE":0,"CLASSIFICATION_TYPE":"U","NORAD_CAT_ID":56401,"ELEMENT_SET_NO":999,"REV_AT_EPOCH":583,"BSTAR":0.046497,"MEAN_MOTION_DOT":0.01540453,"MEAN_MOTION_DDOT":0},{"OBJECT_NAME":"STARLINK-6284","OBJECT_ID":"2023-061AF","EPOCH":"2025-11-16T16:32:48.842016","MEAN_MOTION":15.02523207,"ECCENTRICITY":0.0001448,"INCLINATION":43.0035,"RA_OF_ASC_NODE":78.7115,"ARG_OF_PERICENTER":262.3142,"MEAN_ANOMALY":97.7536,"EPHEMERIS_TYPE":0,"CLASSIFICATION_TYPE":"U","NORAD_CAT_ID":56403,"ELEMENT_SET_NO":999,"REV_AT_EPOCH":13990,"BSTAR":0.00017026,"MEAN_MOTION_DOT":2.096e-5,"MEAN_MOTION_DDOT":0},{"OBJECT_NAME":"STARLINK-6287","OBJECT_ID":"2023-061AG","EPOCH":"2025-11-16T16:16:49.418400","MEAN_MOTION":15.02545859,"ECCENTRICITY":0.0001641,"INCLINATION":43.0046,"RA_OF_ASC_NODE":78.6385,"ARG_OF_PERICENTER":274.4771,"MEAN_ANOMALY":85.5884,"EPHEMERIS_TYPE":0,"CLASSIFICATION_TYPE":"U","NORAD_CAT_ID":56404,"ELEMENT_SET_NO":999,"REV_AT_EPOCH":13990,"BSTAR":0.00024026,"MEAN_MOTION_DOT":3.044e-5,"MEAN_MOTION_DDOT":0},{"OBJECT_NAME":"STARLINK-6285","OBJECT_ID":"2023-061AH","EPOCH":"2025-11-16T16:24:48.616128","MEAN_MOTION":15.02542436,"ECCENTRICITY":0.0001383,"INCLINATION":43.0039,"RA_OF_ASC_NODE":78.6843,"ARG_OF_PERICENTER":271.1306,"MEAN_ANOMALY":88.9378,"EPHEMERIS_TYPE":0,"CLASSIFICATION_TYPE":"U","NORAD_CAT_ID":56405,"ELEMENT_SET_NO":999,"REV_AT_EPOCH":13990,"BSTAR":9.2318e-5,"MEAN_MOTION_DOT":1.044e-5,"MEAN_MOTION_DDOT":0},{"OBJECT_NAME":"STARLINK-6283","OBJECT_ID":"2023-061AJ","EPOCH":"2025-11-16T16:04:00.426432","MEAN_MOTION":15.02597008,"ECCENTRICITY":0.0001751,"INCLINATION":43.0042,"RA_OF_ASC_NODE":78.5696,"ARG_OF_PERICENTER":272.2455,"MEAN_ANOMALY":87.8187,"EPHEMERIS_TYPE":0,"CLASSIFICATION_TYPE":"U","NORAD_CAT_ID":56406,"ELEMENT_SET_NO":999,"REV_AT_EPOCH":13990,"BSTAR":-0.00067069,"MEAN_MOTION_DOT":-9.267e-5,"MEAN_MOTION_DDOT":0},{"OBJECT_NAME":"STARLINK-6282","OBJECT_ID":"2023-061AK","EPOCH":"2025-11-16T16:20:00.828960","MEAN_MOTION":15.02539653,"ECCENTRICITY":0.000135,"INCLINATION":43.0038,"RA_OF_ASC_NODE":78.6557,"ARG_OF_PERICENTER":274.4236,"MEAN_ANOMALY":85.6452,"EPHEMERIS_TYPE":0,"CLASSIFICATION_TYPE":"U","NORAD_CAT_ID":56407,"ELEMENT_SET_NO":999,"REV_AT_EPOCH":13990,"BSTAR":5.793e-5,"MEAN_MOTION_DOT":5.79e-6,"MEAN_MOTION_DDOT":0},{"OBJECT_NAME":"STARLINK-6289","OBJECT_ID":"2023-061AL","EPOCH":"2025-11-16T01:31:17.289984","MEAN_MOTION":15.02536267,"ECCENTRICITY":0.00011115,"INCLINATION":43.0038,"RA_OF_ASC_NODE":81.7545,"ARG_OF_PERICENTER":266.4889,"MEAN_ANOMALY":93.5827,"EPHEMERIS_TYPE":0,"CLASSIFICATION_TYPE":"U","NORAD_CAT_ID":56408,"ELEMENT_SET_NO":999,"REV_AT_EPOCH":13981,"BSTAR":0.00010963823,"MEAN_MOTION_DOT":1.278e-5,"MEAN_MOTION_DDOT":0},{"OBJECT_NAME":"STARLINK-6241","OBJECT_ID":"2023-061AM","EPOCH":"2025-11-16T16:12:01.173312","MEAN_MOTION":15.02542713,"ECCENTRICITY":0.0001112,"INCLINATION":43.0036,"RA_OF_ASC_NODE":78.6144,"ARG_OF_PERICENTER":271.4751,"MEAN_ANOMALY":88.5964,"EPHEMERIS_TYPE":0,"CLASSIFICATION_TYPE":"U","NORAD_CAT_ID":56409,"ELEMENT_SET_NO":999,"REV_AT_EPOCH":13990,"BSTAR":6.9946e-5,"MEAN_MOTION_DOT":7.42e-6,"MEAN_MOTION_DDOT":0},{"OBJECT_NAME":"STARLINK-6281","OBJECT_ID":"2023-061AN","EPOCH":"2025-11-16T01:29:42.539424","MEAN_MOTION":15.02530054,"ECCENTRICITY":0.00010965,"INCLINATION":43.0029,"RA_OF_ASC_NODE":81.7553,"ARG_OF_PERICENTER":273.497,"MEAN_ANOMALY":86.5747,"EPHEMERIS_TYPE":0,"CLASSIFICATION_TYPE":"U","NORAD_CAT_ID":56410,"ELEMENT_SET_NO":999,"REV_AT_EPOCH":13981,"BSTAR":2.4405641e-5,"MEAN_MOTION_DOT":1.26e-6,"MEAN_MOTION_DDOT":0},{"OBJECT_NAME":"STARLINK-6279","OBJECT_ID":"2023-061AP","EPOCH":"2025-11-16T16:08:49.279776","MEAN_MOTION":15.02544644,"ECCENTRICITY":0.0001275,"INCLINATION":43.0043,"RA_OF_ASC_NODE":78.5947,"ARG_OF_PERICENTER":270.8781,"MEAN_ANOMALY":89.1915,"EPHEMERIS_TYPE":0,"CLASSIFICATION_TYPE":"U","NORAD_CAT_ID":56411,"ELEMENT_SET_NO":999,"REV_AT_EPOCH":13990,"BSTAR":0.00018483,"MEAN_MOTION_DOT":2.295e-5,"MEAN_MOTION_DDOT":0},{"OBJECT_NAME":"STARLINK-6278","OBJECT_ID":"2023-061AQ","EPOCH":"2025-11-16T17:18:58.413024","MEAN_MOTION":15.02544358,"ECCENTRICITY":0.0001009,"INCLINATION":43.0038,"RA_OF_ASC_NODE":78.0971,"ARG_OF_PERICENTER":275.0306,"MEAN_ANOMALY":85.0421,"EPHEMERIS_TYPE":0,"CLASSIFICATION_TYPE":"U","NORAD_CAT_ID":56412,"ELEMENT_SET_NO":999,"REV_AT_EPOCH":13991,"BSTAR":-0.00012327,"MEAN_MOTION_DOT":-1.869e-5,"MEAN_MOTION_DDOT":0},{"OBJECT_NAME":"STARLINK-6258","OBJECT_ID":"2023-061AR","EPOCH":"2025-11-16T01:34:29.149824","MEAN_MOTION":15.02536883,"ECCENTRICITY":0.00013151,"INCLINATION":43.0041,"RA_OF_ASC_NODE":81.7794,"ARG_OF_PERICENTER":275.4449,"MEAN_ANOMALY":84.6243,"EPHEMERIS_TYPE":0,"CLASSIFICATION_TYPE":"U","NORAD_CAT_ID":56413,"ELEMENT_SET_NO":999,"REV_AT_EPOCH":13981,"BSTAR":0.00014727716,"MEAN_MOTION_DOT":1.786e-5,"MEAN_MOTION_DDOT":0},{"OBJECT_NAME":"STARLINK-5136","OBJECT_ID":"2023-061AS","EPOCH":"2025-11-16T17:12:34.899840","MEAN_MOTION":15.02546252,"ECCENTRICITY":0.0001307,"INCLINATION":43.0022,"RA_OF_ASC_NODE":78.0647,"ARG_OF_PERICENTER":268.2057,"MEAN_ANOMALY":91.8635,"EPHEMERIS_TYPE":0,"CLASSIFICATION_TYPE":"U","NORAD_CAT_ID":56414,"ELEMENT_SET_NO":999,"REV_AT_EPOCH":13991,"BSTAR":0.00016322,"MEAN_MOTION_DOT":2.002e-5,"MEAN_MOTION_DDOT":0},{"OBJECT_NAME":"STARLINK-6260","OBJECT_ID":"2023-061AU","EPOCH":"2025-11-16T16:49:08.872032","MEAN_MOTION":15.0252873,"ECCENTRICITY":0.0001853,"INCLINATION":43.0074,"RA_OF_ASC_NODE":65.7996,"ARG_OF_PERICENTER":263.3843,"MEAN_ANOMALY":96.6788,"EPHEMERIS_TYPE":0,"CLASSIFICATION_TYPE":"U","NORAD_CAT_ID":56416,"ELEMENT_SET_NO":999,"REV_AT_EPOCH":14005,"BSTAR":0.00020419,"MEAN_MOTION_DOT":2.555e-5,"MEAN_MOTION_DDOT":0},{"OBJECT_NAME":"STARLINK-6261","OBJECT_ID":"2023-061AV","EPOCH":"2025-11-16T17:14:10.321728","MEAN_MOTION":15.02548738,"ECCENTRICITY":0.000144,"INCLINATION":43.0041,"RA_OF_ASC_NODE":78.0766,"ARG_OF_PERICENTER":264.5509,"MEAN_ANOMALY":95.5169,"EPHEMERIS_TYPE":0,"CLASSIFICATION_TYPE":"U","NORAD_CAT_ID":56417,"ELEMENT_SET_NO":999,"REV_AT_EPOCH":13991,"BSTAR":0.00020393,"MEAN_MOTION_DOT":2.553e-5,"MEAN_MOTION_DDOT":0},{"OBJECT_NAME":"STARLINK-5356","OBJECT_ID":"2023-061AW","EPOCH":"2025-11-16T16:29:58.407648","MEAN_MOTION":15.02537475,"ECCENTRICITY":0.0001333,"INCLINATION":43.0058,"RA_OF_ASC_NODE":65.6977,"ARG_OF_PERICENTER":275.0468,"MEAN_ANOMALY":85.0222,"EPHEMERIS_TYPE":0,"CLASSIFICATION_TYPE":"U","NORAD_CAT_ID":56418,"ELEMENT_SET_NO":999,"REV_AT_EPOCH":14005,"BSTAR":3.8286e-5,"MEAN_MOTION_DOT":3.14e-6,"MEAN_MOTION_DDOT":0},{"OBJECT_NAME":"STARLINK-5350","OBJECT_ID":"2023-061AX","EPOCH":"2025-11-16T17:09:24.133824","MEAN_MOTION":15.02547483,"ECCENTRICITY":0.0001465,"INCLINATION":43.0041,"RA_OF_ASC_NODE":78.0515,"ARG_OF_PERICENTER":280.4099,"MEAN_ANOMALY":79.6578,"EPHEMERIS_TYPE":0,"CLASSIFICATION_TYPE":"U","NORAD_CAT_ID":56419,"ELEMENT_SET_NO":999,"REV_AT_EPOCH":13991,"BSTAR":0.00023252,"MEAN_MOTION_DOT":2.94e-5,"MEAN_MOTION_DDOT":0}]
